STARLINK-1817           
1 46715U 20073AX  26073.91668981  .00125961  00000+0  13490-2 0  9993
2 46715  53.0468 191.7611 0004515 286.2985 251.1561 15.62957218  5879
STARLINK-1820           
1 46717U 20073AZ  26073.91668981  .00441331  85358-4  13582-2 0  9993
2 46717  53.0388 135.8025 0006791   0.0168  88.2922 15.91244303  6083
STARLINK-1821           
1 46718U 20073BA  26073.73215898  .00064049  00000+0  16369-2 0  9998
2 46718  53.0468 202.7974 0002441 194.4980 165.5953 15.38877295298122
STARLINK-1826           
1 46723U 20073BF  26073.91668981  .00105118  00000+0  11968-2 0  9992
2 46723  53.0476 154.9825 0004203 239.0870 313.7349 15.61469914  5923
STARLINK-1828           
1 46725U 20073BH  26073.91668981  .00123730  00000+0  18190-2 0  9998
2 46725  53.0520 211.1945 0002333  25.9440 196.8751 15.54586095  5953
STARLINK-1830           
1 46727U 20073BK  26073.63329346  .00124801  00000+0  17189-2 0  9995
2 46727  53.0443 159.4607 0002693  26.6526 333.4623 15.56352814298728
STARLINK-1892           
1 46743U 20074E   26073.82508036  .00120913  00000+0  19765-2 0  9992
2 46743  53.0470 268.8349 0003748 114.4387 245.7013 15.51657840297872
STARLINK-1894           
1 46744U 20074F   26073.91668981  .00311539  00000+0  13776-2 0  9991
2 46744  53.0410 251.4527 0004373 310.4357 277.1282 15.83060800  5966
STARLINK-1905           
1 46746U 20074H   26073.91668981  .00123509  00000+0  12337-2 0  9993
2 46746  53.0445 258.0534 0002118 323.4342 170.3111 15.64746322  5885
STARLINK-1911           
1 46749U 20074L   26073.91668981  .00166996  00000+0  11624-2 0  9991
2 46749  53.0454 252.5177 0001619   1.3990  30.4635 15.73363706  6054
STARLINK-1922           
1 46753U 20074Q   26073.80535318  .00120199  00000+0  11743-2 0  9998
2 46753  53.0453 258.6450 0002034   5.5776 354.5260 15.65318095298014
STARLINK-1928           
1 46758U 20074V   26073.80775891  .00123030  00000+0  10856-2 0  9996
2 46758  53.0431 259.4256 0002983  46.5962 313.5302 15.67834177298000
STARLINK-1832           
1 46780U 20074AT  26073.91668981  .00269670  00000+0  14893-2 0  9990
2 46780  53.0392 241.4391 0001490 165.9862 332.0192 15.78337311  6065
STARLINK-1835           
1 46782U 20074AV  26073.91668981  .00176316  00000+0  21223-2 0  9991
2 46782  53.0452 249.3981 0005970  16.4354 197.0647 15.59727570  5869
STARLINK-1882           
1 46784U 20074AX  26073.91668981  .00215514  00000+0  22179-2 0  9998
2 46784  53.0515 249.2877 0004340 164.0594  74.6948 15.63650421  6039
STARLINK-1893           
1 46786U 20074AZ  26073.83297065  .00105240  00000+0  18369-2 0  9992
2 46786  53.0492 239.5397 0002383  27.4366 332.6767 15.49887037298283
STARLINK-1931           
1 46790U 20074BD  26073.91668981  .00135232  00000+0  12769-2 0  9997
2 46790  53.0429 257.5321 0002296  15.6169 284.9087 15.66111198  5982
STARLINK-1934           
1 46792U 20074BF  26073.91668981  .00286621  00000+0  14123-2 0  9994
2 46792  53.0409 240.4103 0000865 330.0315  41.8405 15.80803407  6025
STARLINK-1942           
1 46794U 20074BH  26073.82774230  .00099442  00000+0  18475-2 0  9998
2 46794  53.0458 269.6306 0002207  53.4462 306.6748 15.48134017297864
STARLINK-1944           
1 46796U 20074BK  26073.76854381  .00116448  00000+0  11087-2 0  9997
2 46796  53.0449 245.9335 0002384 312.4648  47.6165 15.65978894298184
