OBJECT_NAME,OBJECT_ID,EPOCH,MEAN_MOTION,ECCENTRICITY,INCLINATION,RA_OF_ASC_NODE,ARG_OF_PERICENTER,MEAN_ANOMALY,EPHEMERIS_TYPE,CLASSIFICATION_TYPE,NORAD_CAT_ID,ELEMENT_SET_NO,REV_AT_EPOCH,BSTAR,MEAN_MOTION_DOT,MEAN_MOTION_DDOT
STARLINK-1817,2020-073AX,2026-03-14T22:00:01.999584,15.62957218,.00045153,53.0468,191.7611,286.2985,251.1561,0,U,46715,999,587,.13490279E-2,.125961E-2,0
STARLINK-1820,2020-073AZ,2026-03-14T22:00:01.999584,15.91244303,.00067911,53.0388,135.8025,0.0168,88.2922,0,U,46717,999,608,.13581943E-2,.441331E-2,.85358159E-4
STARLINK-1821,2020-073BA,2026-03-14T17:34:18.535872,15.38877295,.00024415,53.0468,202.7974,194.4980,165.5953,0,U,46718,999,29812,.16368725E-2,.64049E-3,0
STARLINK-1826,2020-073BF,2026-03-14T22:00:01.999584,15.61469914,.0004203,53.0476,154.9825,239.0870,313.7349,0,U,46723,999,592,.11968443E-2,.105118E-2,0
STARLINK-1828,2020-073BH,2026-03-14T22:00:01.999584,15.54586095,.00023337,53.0520,211.1945,25.9440,196.8751,0,U,46725,999,595,.18189551E-2,.12373E-2,0
STARLINK-1830,2020-073BK,2026-03-14T15:11:56.554944,15.56352814,.00026932,53.0443,159.4607,26.6526,333.4623,0,U,46727,999,29872,.17189245E-2,.124801E-2,0
STARLINK-1892,2020-074E,2026-03-14T19:48:06.943104,15.51657840,.00037484,53.0470,268.8349,114.4387,245.7013,0,U,46743,999,29787,.19765423E-2,.120913E-2,0
STARLINK-1894,2020-074F,2026-03-14T22:00:01.999584,15.83060800,.0004373,53.0410,251.4527,310.4357,277.1282,0,U,46744,999,596,.13776452E-2,.311539E-2,0
STARLINK-1905,2020-074H,2026-03-14T22:00:01.999584,15.64746322,.00021186,53.0445,258.0534,323.4342,170.3111,0,U,46746,999,588,.12336931E-2,.123509E-2,0
STARLINK-1911,2020-074L,2026-03-14T22:00:01.999584,15.73363706,.00016199,53.0454,252.5177,1.3990,30.4635,0,U,46749,999,605,.11623899E-2,.166996E-2,0
STARLINK-1922,2020-074Q,2026-03-14T19:19:42.514752,15.65318095,.0002034,53.0453,258.6450,5.5776,354.5260,0,U,46753,999,29801,.11742877E-2,.120199E-2,0
STARLINK-1928,2020-074V,2026-03-14T19:23:10.369824,15.67834177,.0002983,53.0431,259.4256,46.5962,313.5302,0,U,46758,999,29800,.10855576E-2,.12303E-2,0
STARLINK-1832,2020-074AT,2026-03-14T22:00:01.999584,15.78337311,.00014904,53.0392,241.4391,165.9862,332.0192,0,U,46780,999,606,.14892831E-2,.26967E-2,0
STARLINK-1835,2020-074AV,2026-03-14T22:00:01.999584,15.59727570,.00059707,53.0452,249.3981,16.4354,197.0647,0,U,46782,999,586,.21222518E-2,.176316E-2,0
STARLINK-1882,2020-074AX,2026-03-14T22:00:01.999584,15.63650421,.00043404,53.0515,249.2877,164.0594,74.6948,0,U,46784,999,603,.22178601E-2,.215514E-2,0
STARLINK-1893,2020-074AZ,2026-03-14T19:59:28.664160,15.49887037,.00023833,53.0492,239.5397,27.4366,332.6767,0,U,46786,999,29828,.1836884E-2,.10524E-2,0
STARLINK-1931,2020-074BD,2026-03-14T22:00:01.999584,15.66111198,.00022962,53.0429,257.5321,15.6169,284.9087,0,U,46790,999,598,.12769008E-2,.135232E-2,0
STARLINK-1934,2020-074BF,2026-03-14T22:00:01.999584,15.80803407,.0000865,53.0409,240.4103,330.0315,41.8405,0,U,46792,999,602,.14123113E-2,.286621E-2,0
STARLINK-1942,2020-074BH,2026-03-14T19:51:56.934720,15.48134017,.0002207,53.0458,269.6306,53.4462,306.6748,0,U,46794,999,29786,.18474945E-2,.99442E-3,0
STARLINK-1944,2020-074BK,2026-03-14T18:26:42.185184,15.65978894,.00023846,53.0449,245.9335,312.4648,47.6165,0,U,46796,999,29818,.11086557E-2,.116448E-2,0
